[{"OBJECT_NAME":"STARLINK-30341","OBJECT_ID":"2023-129S","EPOCH":"2026-03-08T04:28:17.963328","MEAN_MOTION":15.03350644,"ECCENTRICITY":0.00018316,"INCLINATION":43.0034,"RA_OF_ASC_NODE":128.0013,"ARG_OF_PERICENTER":279.5727,"MEAN_ANOMALY":80.4909,"EPHEMERIS_TYPE":0,"CLASSIFICATION_TYPE":"U","NORAD_CAT_ID":57714,"ELEMENT_SET_NO":999,"REV_AT_EPOCH":14043,"BSTAR":5.9513685e-5,"MEAN_MOTION_DOT":6.16e-6,"MEAN_MOTION_DDOT":0},{"OBJECT_NAME":"CZ-6A DEB","OBJECT_ID":"2024-140RH","EPOCH":"2026-03-09T12:32:13.567200","MEAN_MOTION":15.23024459,"ECCENTRICITY":0.01073082,"INCLINATION":88.6757,"RA_OF_ASC_NODE":253.1302,"ARG_OF_PERICENTER":74.0491,"MEAN_ANOMALY":287.2547,"EPHEMERIS_TYPE":0,"CLASSIFICATION_TYPE":"U","NORAD_CAT_ID":61163,"ELEMENT_SET_NO":999,"REV_AT_EPOCH":8457,"BSTAR":0.0019108924,"MEAN_MOTION_DOT":0.00053105,"MEAN_MOTION_DDOT":0}]
